{"type": "FeatureCollection", "name": "FHWA_NHS_2025_08_08_union_county_study_route_extract", "crs_source_prj": "GCS_North_American_1983", "extraction_note": "All features with STFIPS=34 (New Jersey), CTFIPS=39 (Union County), and ROUTEID in ['20041769__','200413892_','00000081__'], extracted unmodified from National_NHS_080825.shp in nhs_2025-08-08.zip", "features": [{"type": "Feature", "properties": {"ID": 432250, "DIR": 0, "LENGTH": 0.564057, "VERSION": "2025.08.08", "YEAR": 2020, "STFIPS": 34, "CTFIPS": 39, "ROUTEID": "00000081__", "BEGINPOINT": 0.0, "ENDPOINT": 0.55, "SIGN1": "S81", "SIGNT1": "S", "SIGNN1": "81", "LNAME": "", "NHS": 7, "STATUS": 1, "FACID": "", "CONNID": "", "CONNDES": "", "CONNMILES": 0.0, "ACLASS": "P", "FCLASS": 2, "FACILITYT": 2, "THROUGH_LA": 4, "SPEED_LIMI": 40, "OWNERSHIP": 31, "URBANCODE": 63217, "AADT": 20623, "AADT_COM": 295, "AADT_SINGL": 670, "FUT_AADT": 0, "FUT_YEAR": null, "MILES": 0.564057, "UPDATE_DAT": null, "NHS_ACTION": "", "FILE_NAME": "NJ_NHS_2021"}, "geometry": {"type": "LineString", "coordinates": [[-74.18329, 40.668437], [-74.183723, 40.66925], [-74.183881, 40.669544], [-74.184189, 40.67002], [-74.184432, 40.670411], [-74.184651, 40.670765], [-74.18493, 40.671242], [-74.185112, 40.671557], [-74.185178, 40.671664], [-74.185233, 40.671752], [-74.185331, 40.671912], [-74.185438, 40.672062], [-74.185578, 40.672238], [-74.18569, 40.672365], [-74.185732, 40.672413], [-74.185754, 40.672436], [-74.185919, 40.672614], [-74.186134, 40.672819], [-74.186364, 40.673019], [-74.18664, 40.673228], [-74.186836, 40.673357], [-74.187071, 40.673511], [-74.187413, 40.673709], [-74.188007, 40.67405], [-74.188541, 40.674352], [-74.188841, 40.674525], [-74.188939, 40.674588], [-74.189108, 40.674693], [-74.189286, 40.674808], [-74.189403, 40.674891], [-74.189428, 40.674908]]}}, {"type": "Feature", "properties": {"ID": 432265, "DIR": 0, "LENGTH": 0.300964, "VERSION": "2025.08.08", "YEAR": 2020, "STFIPS": 34, "CTFIPS": 39, "ROUTEID": "20041769__", "BEGINPOINT": 1.27, "ENDPOINT": 1.57, "SIGN1": "C624", "SIGNT1": "C", "SIGNN1": "624", "LNAME": "", "NHS": 7, "STATUS": 1, "FACID": "", "CONNID": "", "CONNDES": "", "CONNMILES": 0.0, "ACLASS": "", "FCLASS": 4, "FACILITYT": 2, "THROUGH_LA": 3, "SPEED_LIMI": 40, "OWNERSHIP": 4, "URBANCODE": 63217, "AADT": 21434, "AADT_COM": 79, "AADT_SINGL": 512, "FUT_AADT": 0, "FUT_YEAR": null, "MILES": 0.300964, "UPDATE_DAT": null, "NHS_ACTION": "", "FILE_NAME": "NJ_NHS_2021"}, "geometry": {"type": "LineString", "coordinates": [[-74.18706, 40.673132], [-74.187036, 40.67311], [-74.186811, 40.6729], [-74.186469, 40.672532], [-74.186313, 40.67236], [-74.186238, 40.672279], [-74.186197, 40.67224], [-74.186133, 40.672179], [-74.186132, 40.672179], [-74.185977, 40.672035], [-74.185814, 40.67192], [-74.185627, 40.671829], [-74.185488, 40.671766], [-74.185427, 40.671738], [-74.185227, 40.671676], [-74.185178, 40.671664], [-74.18504, 40.671632], [-74.184908, 40.671612], [-74.184815, 40.671598], [-74.184345, 40.671554], [-74.183901, 40.671515], [-74.183313, 40.671466], [-74.182994, 40.671431], [-74.182769, 40.671397], [-74.182746, 40.671394], [-74.182612, 40.671373], [-74.182469, 40.67133], [-74.182264, 40.671251]]}}, {"type": "Feature", "properties": {"ID": 432923, "DIR": 0, "LENGTH": 0.145985, "VERSION": "2025.08.08", "YEAR": 2020, "STFIPS": 34, "CTFIPS": 39, "ROUTEID": "00000081__", "BEGINPOINT": 1.02, "ENDPOINT": 1.18, "SIGN1": "", "SIGNT1": "", "SIGNN1": "", "LNAME": "Dowd Av", "NHS": 7, "STATUS": 1, "FACID": "", "CONNID": "", "CONNDES": "", "CONNMILES": 0.0, "ACLASS": "P", "FCLASS": 2, "FACILITYT": 2, "THROUGH_LA": 3, "SPEED_LIMI": 40, "OWNERSHIP": 1, "URBANCODE": 63217, "AADT": 57847, "AADT_COM": 827, "AADT_SINGL": 1880, "FUT_AADT": 0, "FUT_YEAR": null, "MILES": 0.145985, "UPDATE_DAT": null, "NHS_ACTION": "", "FILE_NAME": "NJ_NHS_2021"}, "geometry": {"type": "LineString", "coordinates": [[-74.192933, 40.680363], [-74.19293, 40.680381], [-74.192904, 40.680489], [-74.192869, 40.680596], [-74.192783, 40.680798], [-74.192689, 40.680999], [-74.192587, 40.681197], [-74.192499, 40.681464], [-74.192431, 40.681741], [-74.192386, 40.682014], [-74.192376, 40.682197], [-74.192399, 40.68242]]}}, {"type": "Feature", "properties": {"ID": 432932, "DIR": 0, "LENGTH": 0.25062, "VERSION": "2025.08.08", "YEAR": 2020, "STFIPS": 34, "CTFIPS": 39, "ROUTEID": "20041769__", "BEGINPOINT": 0.66, "ENDPOINT": 0.91, "SIGN1": "", "SIGNT1": "", "SIGNN1": "", "LNAME": "North Av", "NHS": 7, "STATUS": 1, "FACID": "", "CONNID": "", "CONNDES": "", "CONNMILES": 0.0, "ACLASS": "P", "FCLASS": 4, "FACILITYT": 2, "THROUGH_LA": 2, "SPEED_LIMI": 25, "OWNERSHIP": 4, "URBANCODE": 63217, "AADT": 14960, "AADT_COM": 55, "AADT_SINGL": 358, "FUT_AADT": 16606, "FUT_YEAR": "2039-12-31", "MILES": 0.25062, "UPDATE_DAT": null, "NHS_ACTION": "", "FILE_NAME": "NJ_NHS_2021"}, "geometry": {"type": "LineString", "coordinates": [[-74.197192, 40.67742], [-74.197174, 40.677413], [-74.196973, 40.677331], [-74.196538, 40.677153], [-74.196269, 40.677047], [-74.196173, 40.677009], [-74.195788, 40.676856], [-74.194688, 40.676414], [-74.193201, 40.67582], [-74.192983, 40.675712]]}}, {"type": "Feature", "properties": {"ID": 432933, "DIR": 0, "LENGTH": 0.250352, "VERSION": "2025.08.08", "YEAR": 2020, "STFIPS": 34, "CTFIPS": 39, "ROUTEID": "20041769__", "BEGINPOINT": 1.02, "ENDPOINT": 1.27, "SIGN1": "", "SIGNT1": "", "SIGNN1": "", "LNAME": "North Av", "NHS": 7, "STATUS": 1, "FACID": "", "CONNID": "", "CONNDES": "", "CONNMILES": 0.0, "ACLASS": "P", "FCLASS": 4, "FACILITYT": 2, "THROUGH_LA": 3, "SPEED_LIMI": 40, "OWNERSHIP": 4, "URBANCODE": 63217, "AADT": 21434, "AADT_COM": 79, "AADT_SINGL": 512, "FUT_AADT": 0, "FUT_YEAR": null, "MILES": 0.250352, "UPDATE_DAT": null, "NHS_ACTION": "", "FILE_NAME": "NJ_NHS_2021"}, "geometry": {"type": "LineString", "coordinates": [[-74.191127, 40.674985], [-74.190558, 40.674755], [-74.190472, 40.67472], [-74.190258, 40.674635], [-74.189921, 40.674495], [-74.189403, 40.674284], [-74.189034, 40.67414], [-74.18854, 40.673944], [-74.188134, 40.673771], [-74.187853, 40.673656], [-74.187553, 40.673493], [-74.187391, 40.673397], [-74.187248, 40.673297], [-74.187168, 40.673227], [-74.18706, 40.673132]]}}, {"type": "Feature", "properties": {"ID": 432937, "DIR": 0, "LENGTH": 0.18212, "VERSION": "2025.08.08", "YEAR": 2020, "STFIPS": 34, "CTFIPS": 39, "ROUTEID": "00000081__", "BEGINPOINT": 0.55, "ENDPOINT": 0.75, "SIGN1": "S81", "SIGNT1": "S", "SIGNN1": "81", "LNAME": "Dowd Av", "NHS": 7, "STATUS": 1, "FACID": "", "CONNID": "", "CONNDES": "", "CONNMILES": 0.0, "ACLASS": "P", "FCLASS": 2, "FACILITYT": 2, "THROUGH_LA": 4, "SPEED_LIMI": 40, "OWNERSHIP": 1, "URBANCODE": 63217, "AADT": 20623, "AADT_COM": 295, "AADT_SINGL": 670, "FUT_AADT": 0, "FUT_YEAR": null, "MILES": 0.18212, "UPDATE_DAT": null, "NHS_ACTION": "", "FILE_NAME": "NJ_NHS_2021"}, "geometry": {"type": "LineString", "coordinates": [[-74.189428, 40.674908], [-74.189586, 40.67502], [-74.189693, 40.675092], [-74.189862, 40.675221], [-74.190106, 40.675417], [-74.190241, 40.675526], [-74.190526, 40.675784], [-74.190799, 40.676074], [-74.190827, 40.676103], [-74.190857, 40.676134], [-74.190882, 40.676161], [-74.191068, 40.676365], [-74.191176, 40.676487], [-74.191353, 40.67672], [-74.191535, 40.676984]]}}, {"type": "Feature", "properties": {"ID": 432938, "DIR": 0, "LENGTH": 0.247392, "VERSION": "2025.08.08", "YEAR": 2020, "STFIPS": 34, "CTFIPS": 39, "ROUTEID": "00000081__", "BEGINPOINT": 0.75, "ENDPOINT": 1.02, "SIGN1": "S81", "SIGNT1": "S", "SIGNN1": "81", "LNAME": "Dowd Av", "NHS": 7, "STATUS": 1, "FACID": "", "CONNID": "", "CONNDES": "", "CONNMILES": 0.0, "ACLASS": "P", "FCLASS": 2, "FACILITYT": 2, "THROUGH_LA": 3, "SPEED_LIMI": 40, "OWNERSHIP": 1, "URBANCODE": 63217, "AADT": 57847, "AADT_COM": 827, "AADT_SINGL": 1880, "FUT_AADT": 0, "FUT_YEAR": null, "MILES": 0.247392, "UPDATE_DAT": null, "NHS_ACTION": "", "FILE_NAME": "NJ_NHS_2021"}, "geometry": {"type": "LineString", "coordinates": [[-74.191535, 40.676984], [-74.191551, 40.677007], [-74.191563, 40.677024], [-74.1916, 40.677085], [-74.191822, 40.677411], [-74.192048, 40.677829], [-74.192377, 40.678427], [-74.192532, 40.678708], [-74.192682, 40.679], [-74.192694, 40.679027], [-74.192746, 40.679157], [-74.192793, 40.679288], [-74.19284, 40.67944], [-74.19288, 40.679592], [-74.192913, 40.679746], [-74.19293, 40.679844], [-74.192944, 40.679942], [-74.192954, 40.680052], [-74.192955, 40.680162], [-74.192947, 40.680272], [-74.192933, 40.680363]]}}, {"type": "Feature", "properties": {"ID": 432939, "DIR": 0, "LENGTH": 0.109746, "VERSION": "2025.08.08", "YEAR": 2020, "STFIPS": 34, "CTFIPS": 39, "ROUTEID": "20041769__", "BEGINPOINT": 0.91, "ENDPOINT": 1.02, "SIGN1": "", "SIGNT1": "", "SIGNN1": "", "LNAME": "North Av", "NHS": 7, "STATUS": 1, "FACID": "", "CONNID": "", "CONNDES": "", "CONNMILES": 0.0, "ACLASS": "P", "FCLASS": 4, "FACILITYT": 2, "THROUGH_LA": 2, "SPEED_LIMI": 25, "OWNERSHIP": 4, "URBANCODE": 63217, "AADT": 14960, "AADT_COM": 55, "AADT_SINGL": 358, "FUT_AADT": 0, "FUT_YEAR": null, "MILES": 0.109746, "UPDATE_DAT": null, "NHS_ACTION": "", "FILE_NAME": "NJ_NHS_2021"}, "geometry": {"type": "LineString", "coordinates": [[-74.192983, 40.675712], [-74.192905, 40.675673], [-74.192764, 40.675604], [-74.192183, 40.67539], [-74.191589, 40.675172], [-74.191242, 40.675031], [-74.191231, 40.675027], [-74.191127, 40.674985]]}}, {"type": "Feature", "properties": {"ID": 433684, "DIR": 0, "LENGTH": 0.182524, "VERSION": "2025.08.08", "YEAR": 2020, "STFIPS": 34, "CTFIPS": 39, "ROUTEID": "20041769__", "BEGINPOINT": 2.33, "ENDPOINT": 2.51, "SIGN1": "C624", "SIGNT1": "C", "SIGNN1": "624", "LNAME": "", "NHS": 7, "STATUS": 1, "FACID": "", "CONNID": "", "CONNDES": "", "CONNMILES": 0.0, "ACLASS": "", "FCLASS": 4, "FACILITYT": 2, "THROUGH_LA": 6, "SPEED_LIMI": 40, "OWNERSHIP": 4, "URBANCODE": 63217, "AADT": 21434, "AADT_COM": 79, "AADT_SINGL": 512, "FUT_AADT": 0, "FUT_YEAR": null, "MILES": 0.182524, "UPDATE_DAT": null, "NHS_ACTION": "", "FILE_NAME": "NJ_NHS_2021"}, "geometry": {"type": "LineString", "coordinates": [[-74.169371, 40.6662], [-74.168558, 40.665869], [-74.168051, 40.665644], [-74.167598, 40.665437], [-74.167098, 40.665217], [-74.166988, 40.665175], [-74.166875, 40.665139], [-74.166758, 40.66511], [-74.166639, 40.665088], [-74.166518, 40.665072], [-74.166396, 40.665064], [-74.166273, 40.665062]]}}, {"type": "Feature", "properties": {"ID": 433685, "DIR": 0, "LENGTH": 0.212018, "VERSION": "2025.08.08", "YEAR": 2020, "STFIPS": 34, "CTFIPS": 39, "ROUTEID": "200413892_", "BEGINPOINT": 0.0, "ENDPOINT": 0.21, "SIGN1": "", "SIGNT1": "", "SIGNN1": "", "LNAME": "", "NHS": 7, "STATUS": 1, "FACID": "", "CONNID": "", "CONNDES": "", "CONNMILES": 0.0, "ACLASS": "", "FCLASS": 4, "FACILITYT": 2, "THROUGH_LA": 6, "SPEED_LIMI": 40, "OWNERSHIP": 4, "URBANCODE": 63217, "AADT": 19553, "AADT_COM": 72, "AADT_SINGL": 467, "FUT_AADT": 0, "FUT_YEAR": null, "MILES": 0.212018, "UPDATE_DAT": null, "NHS_ACTION": "", "FILE_NAME": "NJ_NHS_2021"}, "geometry": {"type": "LineString", "coordinates": [[-74.166273, 40.665062], [-74.166164, 40.665073], [-74.166056, 40.665092], [-74.165951, 40.665117], [-74.165849, 40.665148], [-74.16575, 40.665186], [-74.165656, 40.665229], [-74.165567, 40.665278], [-74.165483, 40.665333], [-74.165405, 40.665392], [-74.165334, 40.665457], [-74.16527, 40.665525], [-74.165214, 40.665597], [-74.165165, 40.665672], [-74.165125, 40.66575], [-74.165092, 40.66583], [-74.164913, 40.666669], [-74.164785, 40.667231], [-74.164659, 40.667613]]}}, {"type": "Feature", "properties": {"ID": 433697, "DIR": 0, "LENGTH": 0.181717, "VERSION": "2025.08.08", "YEAR": 2020, "STFIPS": 34, "CTFIPS": 39, "ROUTEID": "20041769__", "BEGINPOINT": 2.15, "ENDPOINT": 2.33, "SIGN1": "C624", "SIGNT1": "C", "SIGNN1": "624", "LNAME": "", "NHS": 7, "STATUS": 1, "FACID": "", "CONNID": "", "CONNDES": "", "CONNMILES": 0.0, "ACLASS": "", "FCLASS": 4, "FACILITYT": 2, "THROUGH_LA": 6, "SPEED_LIMI": 40, "OWNERSHIP": 4, "URBANCODE": 63217, "AADT": 21434, "AADT_COM": 79, "AADT_SINGL": 512, "FUT_AADT": 0, "FUT_YEAR": null, "MILES": 0.181717, "UPDATE_DAT": null, "NHS_ACTION": "", "FILE_NAME": "NJ_NHS_2021"}, "geometry": {"type": "LineString", "coordinates": [[-74.172427, 40.667433], [-74.171594, 40.667093], [-74.170936, 40.666825], [-74.169693, 40.666331], [-74.169371, 40.6662]]}}, {"type": "Feature", "properties": {"ID": 433698, "DIR": 0, "LENGTH": 0.476818, "VERSION": "2025.08.08", "YEAR": 2020, "STFIPS": 34, "CTFIPS": 39, "ROUTEID": "200413892_", "BEGINPOINT": 1.0, "ENDPOINT": 1.47, "SIGN1": "", "SIGNT1": "", "SIGNN1": "", "LNAME": "", "NHS": 10, "STATUS": 1, "FACID": "", "CONNID": "", "CONNDES": "", "CONNMILES": 0.0, "ACLASS": "", "FCLASS": 4, "FACILITYT": 2, "THROUGH_LA": 4, "SPEED_LIMI": 40, "OWNERSHIP": 4, "URBANCODE": 63217, "AADT": 13283, "AADT_COM": 49, "AADT_SINGL": 317, "FUT_AADT": 0, "FUT_YEAR": null, "MILES": 0.476818, "UPDATE_DAT": null, "NHS_ACTION": "", "FILE_NAME": "NJ_NHS_2021"}, "geometry": {"type": "LineString", "coordinates": [[-74.157723, 40.677863], [-74.157742, 40.677905], [-74.157782, 40.677972], [-74.157829, 40.678036], [-74.157883, 40.678097], [-74.157944, 40.678154], [-74.158012, 40.678206], [-74.158094, 40.678258], [-74.15818, 40.678304], [-74.158271, 40.678346], [-74.158365, 40.678382], [-74.159873, 40.67894], [-74.161541, 40.679612], [-74.162353, 40.679938], [-74.164501, 40.680799], [-74.164596, 40.68084], [-74.164687, 40.680887], [-74.164773, 40.680938], [-74.164854, 40.680994], [-74.16493, 40.681054], [-74.165, 40.681118], [-74.165063, 40.681186], [-74.16512, 40.681257], [-74.165171, 40.681331], [-74.165214, 40.681407], [-74.165249, 40.681486]]}}, {"type": "Feature", "properties": {"ID": 433699, "DIR": 0, "LENGTH": 0.46992, "VERSION": "2025.08.08", "YEAR": 2020, "STFIPS": 34, "CTFIPS": 39, "ROUTEID": "20041769__", "BEGINPOINT": 1.57, "ENDPOINT": 2.04, "SIGN1": "C624", "SIGNT1": "C", "SIGNN1": "624", "LNAME": "", "NHS": 7, "STATUS": 1, "FACID": "", "CONNID": "", "CONNDES": "", "CONNMILES": 0.0, "ACLASS": "", "FCLASS": 4, "FACILITYT": 2, "THROUGH_LA": 6, "SPEED_LIMI": 40, "OWNERSHIP": 4, "URBANCODE": 63217, "AADT": 21434, "AADT_COM": 79, "AADT_SINGL": 512, "FUT_AADT": 0, "FUT_YEAR": null, "MILES": 0.46992, "UPDATE_DAT": null, "NHS_ACTION": "", "FILE_NAME": "NJ_NHS_2021"}, "geometry": {"type": "LineString", "coordinates": [[-74.182264, 40.671251], [-74.181956, 40.671133], [-74.181796, 40.671077], [-74.180132, 40.670494], [-74.179357, 40.670216], [-74.178963, 40.670072], [-74.17855, 40.669913], [-74.178526, 40.669904], [-74.178456, 40.669875], [-74.178133, 40.669745], [-74.178065, 40.669718], [-74.177885, 40.669645], [-74.177485, 40.669484], [-74.177246, 40.669388], [-74.177239, 40.669385], [-74.176015, 40.668891], [-74.175471, 40.668677], [-74.175228, 40.668577], [-74.174854, 40.668484], [-74.174266, 40.668217]]}}, {"type": "Feature", "properties": {"ID": 433700, "DIR": 0, "LENGTH": 0.110755, "VERSION": "2025.08.08", "YEAR": 2020, "STFIPS": 34, "CTFIPS": 39, "ROUTEID": "20041769__", "BEGINPOINT": 2.04, "ENDPOINT": 2.15, "SIGN1": "C624", "SIGNT1": "C", "SIGNN1": "624", "LNAME": "", "NHS": 7, "STATUS": 1, "FACID": "", "CONNID": "", "CONNDES": "", "CONNMILES": 0.0, "ACLASS": "", "FCLASS": 4, "FACILITYT": 2, "THROUGH_LA": 6, "SPEED_LIMI": 40, "OWNERSHIP": 4, "URBANCODE": 63217, "AADT": 21434, "AADT_COM": 79, "AADT_SINGL": 512, "FUT_AADT": 0, "FUT_YEAR": null, "MILES": 0.110755, "UPDATE_DAT": null, "NHS_ACTION": "", "FILE_NAME": "NJ_NHS_2021"}, "geometry": {"type": "LineString", "coordinates": [[-74.174266, 40.668217], [-74.17376, 40.667986], [-74.17256, 40.667487], [-74.172427, 40.667433]]}}, {"type": "Feature", "properties": {"ID": 433701, "DIR": 0, "LENGTH": 0.800999, "VERSION": "2025.08.08", "YEAR": 2020, "STFIPS": 34, "CTFIPS": 39, "ROUTEID": "200413892_", "BEGINPOINT": 0.21, "ENDPOINT": 1.0, "SIGN1": "", "SIGNT1": "", "SIGNN1": "", "LNAME": "", "NHS": 7, "STATUS": 1, "FACID": "", "CONNID": "", "CONNDES": "", "CONNMILES": 0.0, "ACLASS": "", "FCLASS": 4, "FACILITYT": 2, "THROUGH_LA": 4, "SPEED_LIMI": 40, "OWNERSHIP": 4, "URBANCODE": 63217, "AADT": 19553, "AADT_COM": 72, "AADT_SINGL": 467, "FUT_AADT": 0, "FUT_YEAR": null, "MILES": 0.800999, "UPDATE_DAT": null, "NHS_ACTION": "", "FILE_NAME": "NJ_NHS_2021"}, "geometry": {"type": "LineString", "coordinates": [[-74.164659, 40.667613], [-74.163821, 40.668907], [-74.163033, 40.670021], [-74.162059, 40.67143], [-74.16131, 40.672527], [-74.160144, 40.674171], [-74.159807, 40.674612], [-74.159757, 40.674676], [-74.158647, 40.67616], [-74.157796, 40.677194], [-74.157754, 40.67726], [-74.15772, 40.677329], [-74.157693, 40.6774], [-74.157675, 40.677472], [-74.157666, 40.677545], [-74.157664, 40.677618], [-74.157671, 40.677692], [-74.157687, 40.677764], [-74.15771, 40.677836], [-74.157723, 40.677863]]}}]}