{"type":"FeatureCollection","crs":{"type":"name","properties":{"name":"EPSG:4326"}},"features":[{"type":"Feature","id":273,"geometry":{"type":"Polygon","coordinates":[[[-74.2039394522392,40.6879298320946],[-74.2015484214759,40.6866804900828],[-74.1982203093817,40.6868777271482],[-74.1979188236776,40.6868955892688],[-74.1973338385514,40.6869302460578],[-74.197187872354,40.6869388927396],[-74.193148998444,40.6871789599459],[-74.1920974553527,40.6872414872956],[-74.169888497528,40.6885598283619],[-74.1692732628871,40.6886251218092],[-74.1690077530472,40.6887904127102],[-74.169005112448,40.6887920559402],[-74.1685324262647,40.6894035816916],[-74.168530868731,40.6894055963655],[-74.1676345639612,40.6899708110241],[-74.1664551979883,40.6901566754506],[-74.165051409548,40.690169607478],[-74.1631023371836,40.6897680659911],[-74.162390851916,40.6896214782687],[-74.1619450623338,40.689461346702],[-74.16178757258,40.689404774467],[-74.1610258340068,40.6889194441879],[-74.1608346038776,40.688710149575],[-74.160629735866,40.6884859267301],[-74.1606082955569,40.688448319484],[-74.1601128474646,40.6875792434987],[-74.1600929966891,40.6875444227855],[-74.1596703068503,40.6869804779573],[-74.1594280305566,40.6867315553538],[-74.1593799631991,40.68668216872],[-74.1590608547547,40.6864334185032],[-74.1587201456364,40.6862159579552],[-74.1583422616122,40.6860313816958],[-74.1582811293683,40.6860223433693],[-74.1578621509432,40.6859603939546],[-74.1568686128475,40.6860646988685],[-74.1559658467136,40.6861189915238],[-74.1553238666298,40.6861241482778],[-74.1545613176741,40.6860767230691],[-74.1538485640047,40.6859221671003],[-74.1526567813183,40.6852323878386],[-74.1519119875196,40.6846049856218],[-74.1510886309866,40.6837420781124],[-74.1507719360879,40.6834483938324],[-74.1504347131592,40.6831554777761],[-74.1489857079544,40.6822440278307],[-74.1412261524611,40.6782103495115],[-74.1391390531813,40.6771252326175],[-74.1319555037228,40.6737966266808],[-74.131958289754,40.673792255033],[-74.1325066338042,40.6729317164759],[-74.1338707516094,40.6709680348602],[-74.1405731646006,40.6613178196196],[-74.1427212284605,40.6589433492874],[-74.146056236823,40.6560222097701],[-74.1472598355488,40.6551242527825],[-74.148732335762,40.6542576003745],[-74.1520189836265,40.6527865957037],[-74.155191129131,40.6513151560092],[-74.1580900562259,40.6497370528195],[-74.1618570054645,40.6468899944029],[-74.1630139525094,40.6458976555707],[-74.1801474463646,40.6477690228358],[-74.1801600789531,40.6477680851695],[-74.1802167124655,40.6477639281063],[-74.1803147891126,40.647764776047],[-74.1806495829282,40.6477484287499],[-74.1808500617835,40.6477284581608],[-74.1812995931334,40.6476930809885],[-74.1820950517158,40.6476346168006],[-74.1823583543769,40.6476037030355],[-74.1824506801492,40.6476004445879],[-74.1825037206679,40.6476111275299],[-74.1825383576712,40.6476077103887],[-74.1825591905847,40.6475954563623],[-74.1825731196544,40.6475779148049],[-74.1825816298398,40.6475386447187],[-74.182587102203,40.6475141452408],[-74.1826033611604,40.6474815069058],[-74.1827081671913,40.6473321590817],[-74.1827302184536,40.6473122892367],[-74.182763761694,40.6472901183861],[-74.1828446753373,40.6472622056779],[-74.1829093591609,40.6472483158294],[-74.1829948992381,40.6472221899149],[-74.1830757604822,40.6472030668243],[-74.1831935651505,40.6471875565005],[-74.1833147848105,40.6471799906696],[-74.1835710047037,40.6471736592933],[-74.1837454343064,40.6471633838769],[-74.1839208356881,40.6471473649843],[-74.1840502511418,40.647114315624],[-74.1840628312395,40.6471106809696],[-74.184218984207,40.6470655589817],[-74.1843206146009,40.6470500041777],[-74.1844221609163,40.647052037909],[-74.1845490467456,40.6470664610768],[-74.1853313561174,40.6468549804621],[-74.1854407568461,40.6467935419032],[-74.1854933581814,40.6467640011661],[-74.185426711712,40.6467022802549],[-74.1855580553502,40.6466185662993],[-74.1859719212821,40.6463547789064],[-74.1861081132567,40.646273175017],[-74.186339942754,40.6461342648622],[-74.1864881224583,40.6460373926651],[-74.1871259651619,40.6456203933403],[-74.1871742657205,40.6456556838998],[-74.1872367776189,40.645615415957],[-74.1872694617884,40.645647602116],[-74.1875016084453,40.6454777365963],[-74.1881613670262,40.6450186784045],[-74.1882921408008,40.6450201752385],[-74.1885821602166,40.644824867558],[-74.1885839629923,40.6447804184383],[-74.1892860738403,40.6442900997957],[-74.1904091644738,40.6436705882783],[-74.1905134986683,40.6436055279561],[-74.1908173243982,40.643415890306],[-74.1912923326428,40.6431064595454],[-74.1917078248038,40.6428781486898],[-74.1917324220402,40.6428539429739],[-74.1917757105159,40.6428094424125],[-74.1918039476351,40.6427804461565],[-74.191821846448,40.6427627789686],[-74.1918266858718,40.6427542541216],[-74.1918235328329,40.642745725958],[-74.1918150757811,40.6427387687092],[-74.1917768925201,40.6427169801686],[-74.1917729165654,40.6427151413229],[-74.1917723064779,40.6427115453689],[-74.1917737394935,40.642708451103],[-74.191824700552,40.6426717792696],[-74.1931370985325,40.6416753904107],[-74.193225108677,40.641608564972],[-74.1932657910716,40.6415776831162],[-74.1935523713135,40.6413650529936],[-74.1937191015527,40.6412195337723],[-74.1938100778158,40.6412795483765],[-74.1942940155605,40.640921586927],[-74.1941998215474,40.6408544935056],[-74.1942077232979,40.6408484173125],[-74.1947736746223,40.6404197291537],[-74.1947896754005,40.6404161329863],[-74.1948341958933,40.6404092439094],[-74.1948506618672,40.6403995518456],[-74.1949482858305,40.6403107846449],[-74.195195173113,40.6400862844889],[-74.1951478935123,40.6400500182822],[-74.195212238111,40.639991647685],[-74.1958249683988,40.6394408291747],[-74.1963142618248,40.6389917037392],[-74.1963200765353,40.6389138704387],[-74.1963613670426,40.6388733435579],[-74.1964062201602,40.6388293046488],[-74.1964571897308,40.6388600142867],[-74.196609176742,40.6387222963646],[-74.196809016868,40.6385412035913],[-74.196954200265,40.6383965866949],[-74.1969767407632,40.6383741306291],[-74.1970043222683,40.6383297219433],[-74.1970590204854,40.6382364723374],[-74.1971001840013,40.638166304926],[-74.1971328169786,40.6381106608561],[-74.197158837493,40.6380663020738],[-74.1971847268704,40.6380221770996],[-74.1972424628015,40.637923720843],[-74.197370632462,40.6376927795944],[-74.1974350340442,40.6375763375358],[-74.1977086577344,40.6370816193493],[-74.1978175392751,40.6369035117251],[-74.1978509229802,40.6368489042027],[-74.198027899394,40.6364952116972],[-74.1980582909807,40.6364591407231],[-74.1981623733518,40.6363355962007],[-74.2000488900275,40.6373508351181],[-74.2002845239107,40.6371464674461],[-74.1984507509908,40.6358595392926],[-74.1986664760879,40.6354474964899],[-74.1986874873377,40.6354230007107],[-74.1987505744733,40.6353455057786],[-74.1987575583691,40.6353408768536],[-74.1987650715355,40.6353421122734],[-74.1988011916327,40.6353727371289],[-74.198868188258,40.6353249364011],[-74.1988492320714,40.6352972652926],[-74.1989660141176,40.6352118047661],[-74.1989278647409,40.6351802740619],[-74.1989165812047,40.6351709683722],[-74.1989492431854,40.6351476827158],[-74.1994866082937,40.6347887206637],[-74.1998036329851,40.6345910680355],[-74.2002345002142,40.6343373598664],[-74.201451223886,40.6339720859421],[-74.2021537490235,40.6344524755597],[-74.2159193453903,40.6438631829201],[-74.2161410944398,40.6436772735476],[-74.2165569043491,40.6439578597849],[-74.2169610693702,40.644230584288],[-74.2176248770266,40.6446783911705],[-74.2181165912812,40.6450101524438],[-74.2184464248982,40.6452394007352],[-74.2192519890566,40.6457992677146],[-74.2193082976929,40.6458474159874],[-74.2194140890811,40.6459378482194],[-74.220167907544,40.6464568728535],[-74.2204560074521,40.6466552422654],[-74.2211523203459,40.6471402754751],[-74.2217536673031,40.6475590845682],[-74.2233570718961,40.6486685908178],[-74.2234266070849,40.6487169029387],[-74.228772840642,40.6523669784865],[-74.2296694095165,40.6529879786474],[-74.2301303691824,40.653307374444],[-74.2303587541776,40.6534644027612],[-74.2303802848803,40.6534791950632],[-74.2310665222801,40.65395096774],[-74.2312224115596,40.6540581408172],[-74.2317772013634,40.6544511225589],[-74.2319649592581,40.6545841169829],[-74.232530559813,40.6549461095909],[-74.2326395786416,40.6548842598433],[-74.2328564895332,40.6547576935018],[-74.2332044793453,40.6545524825128],[-74.2333736822988,40.65445125069],[-74.2362511902433,40.6578071962444],[-74.2363377070266,40.6578651685945],[-74.2446696644505,40.6634473989112],[-74.2467235337966,40.6631718853428],[-74.2469042095508,40.664037939578],[-74.2470467659077,40.6646530598969],[-74.2471328692344,40.6650583081791],[-74.2471333677151,40.6650600393328],[-74.2471583550065,40.6651448878051],[-74.2471637640525,40.6651632368659],[-74.2472196409255,40.6652777180145],[-74.2474697534028,40.6656788777443],[-74.2478355366597,40.6662655808969],[-74.2478596858663,40.6663048054361],[-74.2480470448851,40.6666091739063],[-74.2481054053394,40.6667065034996],[-74.2481900966054,40.6668477562383],[-74.2482647929311,40.6669528071313],[-74.248383363838,40.6670483459399],[-74.2485259290662,40.6671575522253],[-74.2485331184357,40.6671630579684],[-74.2487203486873,40.6673207300468],[-74.248888797461,40.6674497559721],[-74.2490260975018,40.6675501395687],[-74.2490745716376,40.667572863603],[-74.2493322418506,40.6676937395317],[-74.2501755522186,40.6681340337092],[-74.2506213369323,40.6683526527359],[-74.2508002912954,40.6684404130345],[-74.250990718282,40.6685356926267],[-74.2513576135343,40.6687192483287],[-74.2517186443946,40.6688998812987],[-74.2521248424004,40.6691024056321],[-74.2529806053877,40.6695290348014],[-74.25302436279,40.6695508410732],[-74.2539864285732,40.6700437377033],[-74.2542206594064,40.6701708380594],[-74.2532615614294,40.6705738518822],[-74.2531509653129,40.6706193193547],[-74.2520711817445,40.6710632966305],[-74.2513245121111,40.6713703162432],[-74.2509957880896,40.6715052126483],[-74.2505299596374,40.6716963059551],[-74.2500317058767,40.6719006948452],[-74.2499955976931,40.6719155225644],[-74.2499251205188,40.6719425186498],[-74.2495972901321,40.6720681628887],[-74.2490929429063,40.6722614444598],[-74.2482372745633,40.6725736980957],[-74.2481840954156,40.6725930711952],[-74.2465795194126,40.6731805142636],[-74.2464040304504,40.6732420841936],[-74.2463038379324,40.673251361861],[-74.2462528256562,40.6732505094698],[-74.2459909132166,40.6732459258991],[-74.2455190239511,40.6732131810739],[-74.2453526444794,40.6732016413669],[-74.2444891532502,40.6731187001559],[-74.2444668093875,40.6731164550372],[-74.2437571138215,40.6730455969893],[-74.243399524888,40.6729922355234],[-74.2431003027522,40.6729393054298],[-74.2425295034283,40.6727617192463],[-74.2425092287938,40.672755414839],[-74.2424867957521,40.6727484202551],[-74.2421437629479,40.6726416959729],[-74.241715460671,40.6725080977747],[-74.2413435504365,40.6723920834298],[-74.2413197648787,40.6723849820196],[-74.2405466451973,40.6732373816786],[-74.2393249780939,40.6726418923891],[-74.2389804935831,40.6732543657782],[-74.2383763417289,40.6730551790647],[-74.2371808286495,40.6751317321575],[-74.2366876803853,40.676031517068],[-74.236560140249,40.6759663611028],[-74.2355724437251,40.6770418945981],[-74.2348242940638,40.67664398102],[-74.235730855086,40.6754718415005],[-74.2339385074978,40.6744362535795],[-74.2341889045755,40.6741737352408],[-74.2310185101483,40.6716789630362],[-74.2310124867866,40.6717482315476],[-74.2309940346197,40.6719604392362],[-74.2309705165702,40.6720886871425],[-74.230923554929,40.6723451299698],[-74.2308925702311,40.6724296046251],[-74.230861537356,40.6725257473786],[-74.2307803673367,40.6727179847104],[-74.2307301791702,40.6728170457444],[-74.2306530848845,40.6729451145742],[-74.2305683604928,40.6730615270459],[-74.2304836946154,40.6731721469079],[-74.2303913364041,40.6732768741076],[-74.2301644577696,40.6735163990688],[-74.2299029623135,40.6737840062698],[-74.2288734596294,40.6734425558693],[-74.2281057192553,40.6743706811314],[-74.2268854977537,40.6740825234883],[-74.2255526318897,40.6748671450143],[-74.2258758151841,40.6751046263788],[-74.2259854786835,40.6751875395349],[-74.2264404374106,40.6755315157664],[-74.2260899596289,40.6757553042695],[-74.2259813606016,40.6756817014785],[-74.2257209834634,40.6758500958166],[-74.2251860648253,40.6752537342063],[-74.2250576515443,40.6752567868454],[-74.224926254036,40.6752517259037],[-74.224813623799,40.6752419048253],[-74.2246759549656,40.6752272750543],[-74.2244569869422,40.675202925454],[-74.2241691945734,40.6751688853641],[-74.223856364075,40.6751300096799],[-74.2232306435156,40.6750760801808],[-74.2229540770359,40.6750568338616],[-74.2223689719925,40.6750161189279],[-74.2221763988408,40.675002710454],[-74.2221732603591,40.6750024921611],[-74.2221822762628,40.6750087802512],[-74.2222235822556,40.6750362624686],[-74.2222662406745,40.6750625204023],[-74.2223101889946,40.6750875133731],[-74.2223553622982,40.6751112070008],[-74.2224016956752,40.6751335651036],[-74.2223308465542,40.6752393065666],[-74.217845091211,40.6819335399274],[-74.214704933924,40.6866187860882],[-74.2147290642788,40.686896533478],[-74.2147771817418,40.6873589444234],[-74.2147797642744,40.6874214282022],[-74.2147939593119,40.6877627532415],[-74.2148050001578,40.6881082708705],[-74.2148058277958,40.6881170024402],[-74.2148526039484,40.6886151773087],[-74.2148529146678,40.6886183346823],[-74.2148771130811,40.6888723656914],[-74.2148802396753,40.6889052228287],[-74.2123481512987,40.6906730361211],[-74.2092490572521,40.6907168505097],[-74.2055202287708,40.6887546374191],[-74.2052651273073,40.6886226167374],[-74.2048108654639,40.6883846035875],[-74.2039394522392,40.6879298320946]]]},"properties":{"OBJECTID":273,"MUN":"ELIZABETH CITY","COUNTY":"UNION","MUN_LABEL":"Elizabeth City","MUN_TYPE":"City","NAME":"Elizabeth","GNIS_NAME":"City of Elizabeth","GNIS":"885205","SSN":"2004","MUN_CODE":"2004","CENSUS2020":"3403921000","ACRES":8904.0345201573527,"SQ_MILES":13.912553937745864,"POP2020":137298,"POP2010":124969,"POP2000":120568,"POP1990":110002,"POP1980":106201,"POPDEN2020":9869,"POPDEN2010":8982,"POPDEN2000":8666,"POPDEN1990":7907,"POPDEN1980":7633,"Shape__Area":387859747.40661621,"Shape__Length":94009.744337422308}}]}